{"type":"FeatureCollection","features":[{"type":"Feature","properties":{"name":"Van Cortlandt Park-242 St"},"geometry":{"type":"Point","coordinates":[-73.89858,40.88925]}},{"type":"Feature","properties":{"name":"238 St"},"geometry":{"type":"Point","coordinates":[-73.90087,40.88467]}},{"type":"Feature","properties":{"name":"231 St"},"geometry":{"type":"Point","coordinates":[-73.90483,40.87886]}},{"type":"Feature","properties":{"name":"Marble Hill-225 St"},"geometry":{"type":"Point","coordinates":[-73.90983,40.87456]}},{"type":"Feature","properties":{"name":"215 St"},"geometry":{"type":"Point","coordinates":[-73.91528,40.86944]}},{"type":"Feature","properties":{"name":"207 St"},"geometry":{"type":"Point","coordinates":[-73.91882,40.86462]}},{"type":"Feature","properties":{"name":"Dyckman St"},"geometry":{"type":"Point","coordinates":[-73.92554,40.86053]}},{"type":"Feature","properties":{"name":"191 St"},"geometry":{"type":"Point","coordinates":[-73.92941,40.85522]}},{"type":"Feature","properties":{"name":"181 St"},"geometry":{"type":"Point","coordinates":[-73.9336,40.84951]}},{"type":"Feature","properties":{"name":"168 St-Washington Hts"},"geometry":{"type":"Point","coordinates":[-73.94013,40.84056]}},{"type":"Feature","properties":{"name":"157 St"},"geometry":{"type":"Point","coordinates":[-73.94489,40.83404]}},{"type":"Feature","properties":{"name":"145 St"},"geometry":{"type":"Point","coordinates":[-73.95036,40.82655]}},{"type":"Feature","properties":{"name":"137 St-City College"},"geometry":{"type":"Point","coordinates":[-73.95368,40.82201]}},{"type":"Feature","properties":{"name":"125 St"},"geometry":{"type":"Point","coordinates":[-73.95837,40.81558]}},{"type":"Feature","properties":{"name":"116 St-Columbia University"},"geometry":{"type":"Point","coordinates":[-73.96411,40.80772]}},{"type":"Feature","properties":{"name":"Cathedral Pkwy (110 St)"},"geometry":{"type":"Point","coordinates":[-73.96685,40.80397]}},{"type":"Feature","properties":{"name":"103 St"},"geometry":{"type":"Point","coordinates":[-73.96838,40.79945]}},{"type":"Feature","properties":{"name":"96 St"},"geometry":{"type":"Point","coordinates":[-73.97232,40.79392]}},{"type":"Feature","properties":{"name":"86 St"},"geometry":{"type":"Point","coordinates":[-73.97622,40.78864]}},{"type":"Feature","properties":{"name":"79 St"},"geometry":{"type":"Point","coordinates":[-73.97992,40.78393]}},{"type":"Feature","properties":{"name":"72 St"},"geometry":{"type":"Point","coordinates":[-73.98197,40.77845]}},{"type":"Feature","properties":{"name":"66 St-Lincoln Center"},"geometry":{"type":"Point","coordinates":[-73.98221,40.77344]}},{"type":"Feature","properties":{"name":"59 St-Columbus Circle"},"geometry":{"type":"Point","coordinates":[-73.98193,40.76825]}},{"type":"Feature","properties":{"name":"50 St"},"geometry":{"type":"Point","coordinates":[-73.98385,40.76173]}},{"type":"Feature","properties":{"name":"Times Sq-42 St"},"geometry":{"type":"Point","coordinates":[-73.98749,40.75529]}},{"type":"Feature","properties":{"name":"34 St-Penn Station"},"geometry":{"type":"Point","coordinates":[-73.99106,40.75037]}},{"type":"Feature","properties":{"name":"28 St"},"geometry":{"type":"Point","coordinates":[-73.99336,40.74721]}},{"type":"Feature","properties":{"name":"23 St"},"geometry":{"type":"Point","coordinates":[-73.99566,40.74408]}},{"type":"Feature","properties":{"name":"18 St"},"geometry":{"type":"Point","coordinates":[-73.99787,40.74104]}},{"type":"Feature","properties":{"name":"14 St"},"geometry":{"type":"Point","coordinates":[-74.0002,40.73783]}},{"type":"Feature","properties":{"name":"Christopher St-Stonewall"},"geometry":{"type":"Point","coordinates":[-74.00291,40.73342]}},{"type":"Feature","properties":{"name":"Houston St"},"geometry":{"type":"Point","coordinates":[-74.00537,40.72825]}},{"type":"Feature","properties":{"name":"Canal St"},"geometry":{"type":"Point","coordinates":[-74.00628,40.72285]}},{"type":"Feature","properties":{"name":"Franklin St"},"geometry":{"type":"Point","coordinates":[-74.00689,40.71932]}},{"type":"Feature","properties":{"name":"Chambers St"},"geometry":{"type":"Point","coordinates":[-74.00927,40.71548]}},{"type":"Feature","properties":{"name":"WTC Cortlandt"},"geometry":{"type":"Point","coordinates":[-74.01219,40.71184]}},{"type":"Feature","properties":{"name":"Rector St"},"geometry":{"type":"Point","coordinates":[-74.01378,40.70751]}},{"type":"Feature","properties":{"name":"South Ferry"},"geometry":{"type":"Point","coordinates":[-74.01366,40.70207]}},{"type":"Feature","properties":{"name":"Wakefield-241 St"},"geometry":{"type":"Point","coordinates":[-73.85062,40.90313]}},{"type":"Feature","properties":{"name":"Nereid Av"},"geometry":{"type":"Point","coordinates":[-73.85438,40.89838]}},{"type":"Feature","properties":{"name":"233 St"},"geometry":{"type":"Point","coordinates":[-73.85747,40.89319]}},{"type":"Feature","properties":{"name":"225 St"},"geometry":{"type":"Point","coordinates":[-73.86034,40.88802]}},{"type":"Feature","properties":{"name":"219 St"},"geometry":{"type":"Point","coordinates":[-73.86263,40.8839]}},{"type":"Feature","properties":{"name":"Gun Hill Rd"},"geometry":{"type":"Point","coordinates":[-73.86626,40.87785]}},{"type":"Feature","properties":{"name":"Burke Av"},"geometry":{"type":"Point","coordinates":[-73.86716,40.87136]}},{"type":"Feature","properties":{"name":"Allerton Av"},"geometry":{"type":"Point","coordinates":[-73.86735,40.86546]}},{"type":"Feature","properties":{"name":"Pelham Pkwy"},"geometry":{"type":"Point","coordinates":[-73.86762,40.85719]}},{"type":"Feature","properties":{"name":"Bronx Park East"},"geometry":{"type":"Point","coordinates":[-73.86846,40.84883]}},{"type":"Feature","properties":{"name":"E 180 St"},"geometry":{"type":"Point","coordinates":[-73.87349,40.84189]}},{"type":"Feature","properties":{"name":"West Farms Sq-E Tremont Av"},"geometry":{"type":"Point","coordinates":[-73.88005,40.84029]}},{"type":"Feature","properties":{"name":"174 St"},"geometry":{"type":"Point","coordinates":[-73.88773,40.83729]}},{"type":"Feature","properties":{"name":"Freeman St"},"geometry":{"type":"Point","coordinates":[-73.89186,40.82999]}},{"type":"Feature","properties":{"name":"Simpson St"},"geometry":{"type":"Point","coordinates":[-73.89306,40.82407]}},{"type":"Feature","properties":{"name":"Intervale Av"},"geometry":{"type":"Point","coordinates":[-73.89674,40.82218]}},{"type":"Feature","properties":{"name":"Prospect Av"},"geometry":{"type":"Point","coordinates":[-73.90177,40.81958]}},{"type":"Feature","properties":{"name":"Jackson Av"},"geometry":{"type":"Point","coordinates":[-73.90781,40.81649]}},{"type":"Feature","properties":{"name":"3 Av-149 St"},"geometry":{"type":"Point","coordinates":[-73.91776,40.81611]}},{"type":"Feature","properties":{"name":"149 St-Grand Concourse"},"geometry":{"type":"Point","coordinates":[-73.92672,40.81841]}},{"type":"Feature","properties":{"name":"135 St"},"geometry":{"type":"Point","coordinates":[-73.94077,40.81423]}},{"type":"Feature","properties":{"name":"125 St"},"geometry":{"type":"Point","coordinates":[-73.94549,40.80775]}},{"type":"Feature","properties":{"name":"116 St"},"geometry":{"type":"Point","coordinates":[-73.94962,40.8021]}},{"type":"Feature","properties":{"name":"110 St-Malcolm X Plaza"},"geometry":{"type":"Point","coordinates":[-73.95182,40.79908]}},{"type":"Feature","properties":{"name":"Park Place"},"geometry":{"type":"Point","coordinates":[-74.00881,40.71305]}},{"type":"Feature","properties":{"name":"Fulton St"},"geometry":{"type":"Point","coordinates":[-74.00657,40.70942]}},{"type":"Feature","properties":{"name":"Wall St"},"geometry":{"type":"Point","coordinates":[-74.0091,40.70682]}},{"type":"Feature","properties":{"name":"Clark St"},"geometry":{"type":"Point","coordinates":[-73.99309,40.69747]}},{"type":"Feature","properties":{"name":"Borough Hall"},"geometry":{"type":"Point","coordinates":[-73.99,40.69322]}},{"type":"Feature","properties":{"name":"Hoyt St"},"geometry":{"type":"Point","coordinates":[-73.98507,40.69055]}},{"type":"Feature","properties":{"name":"Nevins St"},"geometry":{"type":"Point","coordinates":[-73.98049,40.68825]}},{"type":"Feature","properties":{"name":"Atlantic Av-Barclays Ctr"},"geometry":{"type":"Point","coordinates":[-73.97767,40.68436]}},{"type":"Feature","properties":{"name":"Bergen St"},"geometry":{"type":"Point","coordinates":[-73.9751,40.68083]}},{"type":"Feature","properties":{"name":"Grand Army Plaza"},"geometry":{"type":"Point","coordinates":[-73.97105,40.67524]}},{"type":"Feature","properties":{"name":"Eastern Pkwy-Brooklyn Museum"},"geometry":{"type":"Point","coordinates":[-73.96438,40.67199]}},{"type":"Feature","properties":{"name":"Franklin Av-Medgar Evers College"},"geometry":{"type":"Point","coordinates":[-73.95813,40.67068]}},{"type":"Feature","properties":{"name":"President St-Medgar Evers College"},"geometry":{"type":"Point","coordinates":[-73.95068,40.66788]}},{"type":"Feature","properties":{"name":"Sterling St"},"geometry":{"type":"Point","coordinates":[-73.95085,40.66274]}},{"type":"Feature","properties":{"name":"Winthrop St"},"geometry":{"type":"Point","coordinates":[-73.9502,40.65665]}},{"type":"Feature","properties":{"name":"Church Av"},"geometry":{"type":"Point","coordinates":[-73.94957,40.65084]}},{"type":"Feature","properties":{"name":"Beverly Rd"},"geometry":{"type":"Point","coordinates":[-73.94896,40.6451]}},{"type":"Feature","properties":{"name":"Newkirk Av-Little Haiti"},"geometry":{"type":"Point","coordinates":[-73.94841,40.63997]}},{"type":"Feature","properties":{"name":"Flatbush Av-Brooklyn College"},"geometry":{"type":"Point","coordinates":[-73.94764,40.63284]}},{"type":"Feature","properties":{"name":"Nostrand Av"},"geometry":{"type":"Point","coordinates":[-73.95047,40.66985]}},{"type":"Feature","properties":{"name":"Kingston Av"},"geometry":{"type":"Point","coordinates":[-73.94216,40.6694]}},{"type":"Feature","properties":{"name":"Crown Hts-Utica Av"},"geometry":{"type":"Point","coordinates":[-73.93294,40.6689]}},{"type":"Feature","properties":{"name":"Sutter Av-Rutland Rd"},"geometry":{"type":"Point","coordinates":[-73.92261,40.66472]}},{"type":"Feature","properties":{"name":"Saratoga Av"},"geometry":{"type":"Point","coordinates":[-73.91633,40.66145]}},{"type":"Feature","properties":{"name":"Rockaway Av"},"geometry":{"type":"Point","coordinates":[-73.90895,40.66255]}},{"type":"Feature","properties":{"name":"Junius St"},"geometry":{"type":"Point","coordinates":[-73.90245,40.66351]}},{"type":"Feature","properties":{"name":"Pennsylvania Av"},"geometry":{"type":"Point","coordinates":[-73.8949,40.66463]}},{"type":"Feature","properties":{"name":"Van Siclen Av"},"geometry":{"type":"Point","coordinates":[-73.88939,40.66545]}},{"type":"Feature","properties":{"name":"New Lots Av"},"geometry":{"type":"Point","coordinates":[-73.88408,40.66624]}},{"type":"Feature","properties":{"name":"Harlem-148 St"},"geometry":{"type":"Point","coordinates":[-73.93647,40.82388]}},{"type":"Feature","properties":{"name":"145 St"},"geometry":{"type":"Point","coordinates":[-73.93624,40.82042]}},{"type":"Feature","properties":{"name":"Woodlawn"},"geometry":{"type":"Point","coordinates":[-73.87875,40.88604]}},{"type":"Feature","properties":{"name":"Mosholu Pkwy"},"geometry":{"type":"Point","coordinates":[-73.88465,40.87975]}},{"type":"Feature","properties":{"name":"Bedford Park Blvd-Lehman College"},"geometry":{"type":"Point","coordinates":[-73.89006,40.87341]}},{"type":"Feature","properties":{"name":"Kingsbridge Rd"},"geometry":{"type":"Point","coordinates":[-73.89717,40.86776]}},{"type":"Feature","properties":{"name":"Fordham Rd"},"geometry":{"type":"Point","coordinates":[-73.90103,40.8628]}},{"type":"Feature","properties":{"name":"183 St"},"geometry":{"type":"Point","coordinates":[-73.90388,40.85841]}},{"type":"Feature","properties":{"name":"Burnside Av"},"geometry":{"type":"Point","coordinates":[-73.90768,40.85345]}},{"type":"Feature","properties":{"name":"176 St"},"geometry":{"type":"Point","coordinates":[-73.91179,40.84848]}},{"type":"Feature","properties":{"name":"Mt Eden Av"},"geometry":{"type":"Point","coordinates":[-73.91469,40.84443]}},{"type":"Feature","properties":{"name":"170 St"},"geometry":{"type":"Point","coordinates":[-73.91779,40.84007]}},{"type":"Feature","properties":{"name":"167 St"},"geometry":{"type":"Point","coordinates":[-73.9214,40.83554]}},{"type":"Feature","properties":{"name":"161 St-Yankee Stadium"},"geometry":{"type":"Point","coordinates":[-73.92583,40.82799]}},{"type":"Feature","properties":{"name":"149 St-Grand Concourse"},"geometry":{"type":"Point","coordinates":[-73.92735,40.81838]}},{"type":"Feature","properties":{"name":"138 St-Grand Concourse"},"geometry":{"type":"Point","coordinates":[-73.92985,40.81322]}},{"type":"Feature","properties":{"name":"Fulton St"},"geometry":{"type":"Point","coordinates":[-74.00951,40.71037]}},{"type":"Feature","properties":{"name":"Wall St"},"geometry":{"type":"Point","coordinates":[-74.01186,40.70756]}},{"type":"Feature","properties":{"name":"Bowling Green"},"geometry":{"type":"Point","coordinates":[-74.01407,40.70482]}},{"type":"Feature","properties":{"name":"Borough Hall"},"geometry":{"type":"Point","coordinates":[-73.99015,40.6924]}},{"type":"Feature","properties":{"name":"Eastchester-Dyre Av"},"geometry":{"type":"Point","coordinates":[-73.83083,40.8883]}},{"type":"Feature","properties":{"name":"Baychester Av"},"geometry":{"type":"Point","coordinates":[-73.83859,40.87866]}},{"type":"Feature","properties":{"name":"Gun Hill Rd"},"geometry":{"type":"Point","coordinates":[-73.84638,40.86953]}},{"type":"Feature","properties":{"name":"Pelham Pkwy"},"geometry":{"type":"Point","coordinates":[-73.85536,40.85898]}},{"type":"Feature","properties":{"name":"Morris Park"},"geometry":{"type":"Point","coordinates":[-73.8605,40.85436]}},{"type":"Feature","properties":{"name":"Pelham Bay Park"},"geometry":{"type":"Point","coordinates":[-73.82812,40.85246]}},{"type":"Feature","properties":{"name":"Buhre Av"},"geometry":{"type":"Point","coordinates":[-73.83257,40.84681]}},{"type":"Feature","properties":{"name":"Middletown Rd"},"geometry":{"type":"Point","coordinates":[-73.83632,40.84386]}},{"type":"Feature","properties":{"name":"Westchester Sq-E Tremont Av"},"geometry":{"type":"Point","coordinates":[-73.84295,40.83989]}},{"type":"Feature","properties":{"name":"Zerega Av"},"geometry":{"type":"Point","coordinates":[-73.84704,40.83649]}},{"type":"Feature","properties":{"name":"Castle Hill Av"},"geometry":{"type":"Point","coordinates":[-73.85122,40.83425]}},{"type":"Feature","properties":{"name":"Parkchester"},"geometry":{"type":"Point","coordinates":[-73.86082,40.83323]}},{"type":"Feature","properties":{"name":"St Lawrence Av"},"geometry":{"type":"Point","coordinates":[-73.86762,40.83151]}},{"type":"Feature","properties":{"name":"Morrison Av-Soundview"},"geometry":{"type":"Point","coordinates":[-73.87452,40.82952]}},{"type":"Feature","properties":{"name":"Elder Av"},"geometry":{"type":"Point","coordinates":[-73.87916,40.82858]}},{"type":"Feature","properties":{"name":"Whitlock Av"},"geometry":{"type":"Point","coordinates":[-73.88628,40.82652]}},{"type":"Feature","properties":{"name":"Hunts Point Av"},"geometry":{"type":"Point","coordinates":[-73.89055,40.82095]}},{"type":"Feature","properties":{"name":"Longwood Av"},"geometry":{"type":"Point","coordinates":[-73.89643,40.8161]}},{"type":"Feature","properties":{"name":"E 149 St"},"geometry":{"type":"Point","coordinates":[-73.9041,40.81212]}},{"type":"Feature","properties":{"name":"E 143 St-St Mary's St"},"geometry":{"type":"Point","coordinates":[-73.90766,40.80872]}},{"type":"Feature","properties":{"name":"Cypress Av"},"geometry":{"type":"Point","coordinates":[-73.91404,40.80537]}},{"type":"Feature","properties":{"name":"Brook Av"},"geometry":{"type":"Point","coordinates":[-73.91924,40.80757]}},{"type":"Feature","properties":{"name":"3 Av-138 St"},"geometry":{"type":"Point","coordinates":[-73.92614,40.81048]}},{"type":"Feature","properties":{"name":"125 St"},"geometry":{"type":"Point","coordinates":[-73.93759,40.80414]}},{"type":"Feature","properties":{"name":"116 St"},"geometry":{"type":"Point","coordinates":[-73.94162,40.79863]}},{"type":"Feature","properties":{"name":"110 St"},"geometry":{"type":"Point","coordinates":[-73.94425,40.79502]}},{"type":"Feature","properties":{"name":"103 St"},"geometry":{"type":"Point","coordinates":[-73.94748,40.7906]}},{"type":"Feature","properties":{"name":"96 St"},"geometry":{"type":"Point","coordinates":[-73.95107,40.78567]}},{"type":"Feature","properties":{"name":"86 St"},"geometry":{"type":"Point","coordinates":[-73.95559,40.77949]}},{"type":"Feature","properties":{"name":"77 St"},"geometry":{"type":"Point","coordinates":[-73.95987,40.77362]}},{"type":"Feature","properties":{"name":"68 St-Hunter College"},"geometry":{"type":"Point","coordinates":[-73.96387,40.76814]}},{"type":"Feature","properties":{"name":"59 St"},"geometry":{"type":"Point","coordinates":[-73.96797,40.76253]}},{"type":"Feature","properties":{"name":"51 St"},"geometry":{"type":"Point","coordinates":[-73.97192,40.75711]}},{"type":"Feature","properties":{"name":"Grand Central-42 St"},"geometry":{"type":"Point","coordinates":[-73.97685,40.75178]}},{"type":"Feature","properties":{"name":"33 St"},"geometry":{"type":"Point","coordinates":[-73.98208,40.74608]}},{"type":"Feature","properties":{"name":"28 St"},"geometry":{"type":"Point","coordinates":[-73.98426,40.74307]}},{"type":"Feature","properties":{"name":"23 St-Baruch College"},"geometry":{"type":"Point","coordinates":[-73.9866,40.73986]}},{"type":"Feature","properties":{"name":"14 St-Union Sq"},"geometry":{"type":"Point","coordinates":[-73.98995,40.73467]}},{"type":"Feature","properties":{"name":"Astor Pl"},"geometry":{"type":"Point","coordinates":[-73.99107,40.73005]}},{"type":"Feature","properties":{"name":"Bleecker St"},"geometry":{"type":"Point","coordinates":[-73.99466,40.72592]}},{"type":"Feature","properties":{"name":"Spring St"},"geometry":{"type":"Point","coordinates":[-73.99714,40.7223]}},{"type":"Feature","properties":{"name":"Canal St"},"geometry":{"type":"Point","coordinates":[-74.00019,40.7188]}},{"type":"Feature","properties":{"name":"Brooklyn Bridge-City Hall"},"geometry":{"type":"Point","coordinates":[-74.00413,40.71307]}},{"type":"Feature","properties":{"name":"Flushing-Main St"},"geometry":{"type":"Point","coordinates":[-73.83003,40.7596]}},{"type":"Feature","properties":{"name":"Mets-Willets Point"},"geometry":{"type":"Point","coordinates":[-73.84562,40.75462]}},{"type":"Feature","properties":{"name":"111 St"},"geometry":{"type":"Point","coordinates":[-73.85533,40.75173]}},{"type":"Feature","properties":{"name":"103 St-Corona Plaza"},"geometry":{"type":"Point","coordinates":[-73.8627,40.74986]}},{"type":"Feature","properties":{"name":"Junction Blvd"},"geometry":{"type":"Point","coordinates":[-73.86953,40.74914]}},{"type":"Feature","properties":{"name":"90 St-Elmhurst Av"},"geometry":{"type":"Point","coordinates":[-73.87661,40.74841]}},{"type":"Feature","properties":{"name":"82 St-Jackson Hts"},"geometry":{"type":"Point","coordinates":[-73.8837,40.74766]}},{"type":"Feature","properties":{"name":"74 St-Broadway"},"geometry":{"type":"Point","coordinates":[-73.89139,40.74685]}},{"type":"Feature","properties":{"name":"69 St"},"geometry":{"type":"Point","coordinates":[-73.8964,40.74632]}},{"type":"Feature","properties":{"name":"61 St-Woodside"},"geometry":{"type":"Point","coordinates":[-73.90298,40.74563]}},{"type":"Feature","properties":{"name":"52 St"},"geometry":{"type":"Point","coordinates":[-73.91255,40.74415]}},{"type":"Feature","properties":{"name":"46 St-Bliss St"},"geometry":{"type":"Point","coordinates":[-73.91844,40.74313]}},{"type":"Feature","properties":{"name":"40 St-Lowery St"},"geometry":{"type":"Point","coordinates":[-73.92402,40.74378]}},{"type":"Feature","properties":{"name":"33 St-Rawson St"},"geometry":{"type":"Point","coordinates":[-73.931,40.74459]}},{"type":"Feature","properties":{"name":"Queensboro Plaza"},"geometry":{"type":"Point","coordinates":[-73.9402,40.75058]}},{"type":"Feature","properties":{"name":"Court Sq"},"geometry":{"type":"Point","coordinates":[-73.94526,40.74702]}},{"type":"Feature","properties":{"name":"Hunters Point Av"},"geometry":{"type":"Point","coordinates":[-73.94892,40.74222]}},{"type":"Feature","properties":{"name":"Vernon Blvd-Jackson Av"},"geometry":{"type":"Point","coordinates":[-73.95358,40.74263]}},{"type":"Feature","properties":{"name":"Grand Central-42 St"},"geometry":{"type":"Point","coordinates":[-73.97604,40.75143]}},{"type":"Feature","properties":{"name":"5 Av"},"geometry":{"type":"Point","coordinates":[-73.98196,40.75382]}},{"type":"Feature","properties":{"name":"Times Sq-42 St"},"geometry":{"type":"Point","coordinates":[-73.98769,40.75548]}},{"type":"Feature","properties":{"name":"34 St-Hudson Yards"},"geometry":{"type":"Point","coordinates":[-74.00191,40.75588]}},{"type":"Feature","properties":{"name":"Grand Central-42 St"},"geometry":{"type":"Point","coordinates":[-73.97919,40.75277]}},{"type":"Feature","properties":{"name":"Times Sq-42 St"},"geometry":{"type":"Point","coordinates":[-73.98623,40.75598]}},{"type":"Feature","properties":{"name":"Inwood-207 St"},"geometry":{"type":"Point","coordinates":[-73.9199,40.86807]}},{"type":"Feature","properties":{"name":"Dyckman St"},"geometry":{"type":"Point","coordinates":[-73.92727,40.86549]}},{"type":"Feature","properties":{"name":"190 St"},"geometry":{"type":"Point","coordinates":[-73.93418,40.85902]}},{"type":"Feature","properties":{"name":"181 St"},"geometry":{"type":"Point","coordinates":[-73.93797,40.85169]}},{"type":"Feature","properties":{"name":"175 St"},"geometry":{"type":"Point","coordinates":[-73.9397,40.84739]}},{"type":"Feature","properties":{"name":"168 St"},"geometry":{"type":"Point","coordinates":[-73.93956,40.84072]}},{"type":"Feature","properties":{"name":"163 St-Amsterdam Av"},"geometry":{"type":"Point","coordinates":[-73.93989,40.83601]}},{"type":"Feature","properties":{"name":"155 St"},"geometry":{"type":"Point","coordinates":[-73.94151,40.83052]}},{"type":"Feature","properties":{"name":"145 St"},"geometry":{"type":"Point","coordinates":[-73.94422,40.82478]}},{"type":"Feature","properties":{"name":"135 St"},"geometry":{"type":"Point","coordinates":[-73.94765,40.81789]}},{"type":"Feature","properties":{"name":"125 St"},"geometry":{"type":"Point","coordinates":[-73.95234,40.81111]}},{"type":"Feature","properties":{"name":"116 St"},"geometry":{"type":"Point","coordinates":[-73.95488,40.80508]}},{"type":"Feature","properties":{"name":"Cathedral Pkwy (110 St)"},"geometry":{"type":"Point","coordinates":[-73.95816,40.8006]}},{"type":"Feature","properties":{"name":"103 St"},"geometry":{"type":"Point","coordinates":[-73.96145,40.79609]}},{"type":"Feature","properties":{"name":"96 St"},"geometry":{"type":"Point","coordinates":[-73.9647,40.79164]}},{"type":"Feature","properties":{"name":"86 St"},"geometry":{"type":"Point","coordinates":[-73.96892,40.78587]}},{"type":"Feature","properties":{"name":"81 St-Museum of Natural History"},"geometry":{"type":"Point","coordinates":[-73.97214,40.78143]}},{"type":"Feature","properties":{"name":"72 St"},"geometry":{"type":"Point","coordinates":[-73.97641,40.77559]}},{"type":"Feature","properties":{"name":"59 St-Columbus Circle"},"geometry":{"type":"Point","coordinates":[-73.98174,40.7683]}},{"type":"Feature","properties":{"name":"50 St"},"geometry":{"type":"Point","coordinates":[-73.98598,40.76246]}},{"type":"Feature","properties":{"name":"42 St-Port Authority Bus Terminal"},"geometry":{"type":"Point","coordinates":[-73.98973,40.75731]}},{"type":"Feature","properties":{"name":"34 St-Penn Station"},"geometry":{"type":"Point","coordinates":[-73.99339,40.75229]}},{"type":"Feature","properties":{"name":"23 St"},"geometry":{"type":"Point","coordinates":[-73.99804,40.74591]}},{"type":"Feature","properties":{"name":"14 St"},"geometry":{"type":"Point","coordinates":[-74.00169,40.74089]}},{"type":"Feature","properties":{"name":"W 4 St-Wash Sq"},"geometry":{"type":"Point","coordinates":[-74.0005,40.73234]}},{"type":"Feature","properties":{"name":"Spring St"},"geometry":{"type":"Point","coordinates":[-74.00374,40.72623]}},{"type":"Feature","properties":{"name":"Canal St"},"geometry":{"type":"Point","coordinates":[-74.00523,40.72082]}},{"type":"Feature","properties":{"name":"Chambers St"},"geometry":{"type":"Point","coordinates":[-74.00858,40.71411]}},{"type":"Feature","properties":{"name":"Fulton St"},"geometry":{"type":"Point","coordinates":[-74.00769,40.7102]}},{"type":"Feature","properties":{"name":"High St"},"geometry":{"type":"Point","coordinates":[-73.99053,40.69934]}},{"type":"Feature","properties":{"name":"Jay St-MetroTech"},"geometry":{"type":"Point","coordinates":[-73.98734,40.69234]}},{"type":"Feature","properties":{"name":"Hoyt-Schermerhorn Sts"},"geometry":{"type":"Point","coordinates":[-73.985,40.68848]}},{"type":"Feature","properties":{"name":"Lafayette Av"},"geometry":{"type":"Point","coordinates":[-73.97395,40.68611]}},{"type":"Feature","properties":{"name":"Clinton-Washington Avs"},"geometry":{"type":"Point","coordinates":[-73.96584,40.68326]}},{"type":"Feature","properties":{"name":"Franklin Av"},"geometry":{"type":"Point","coordinates":[-73.95685,40.68138]}},{"type":"Feature","properties":{"name":"Nostrand Av"},"geometry":{"type":"Point","coordinates":[-73.95043,40.68044]}},{"type":"Feature","properties":{"name":"Kingston-Throop Avs"},"geometry":{"type":"Point","coordinates":[-73.94086,40.67992]}},{"type":"Feature","properties":{"name":"Utica Av"},"geometry":{"type":"Point","coordinates":[-73.93073,40.67936]}},{"type":"Feature","properties":{"name":"Ralph Av"},"geometry":{"type":"Point","coordinates":[-73.92079,40.67882]}},{"type":"Feature","properties":{"name":"Rockaway Av"},"geometry":{"type":"Point","coordinates":[-73.91195,40.67834]}},{"type":"Feature","properties":{"name":"Broadway Junction"},"geometry":{"type":"Point","coordinates":[-73.90532,40.67833]}},{"type":"Feature","properties":{"name":"Liberty Av"},"geometry":{"type":"Point","coordinates":[-73.89655,40.67454]}},{"type":"Feature","properties":{"name":"Van Siclen Av"},"geometry":{"type":"Point","coordinates":[-73.89036,40.67271]}},{"type":"Feature","properties":{"name":"Shepherd Av"},"geometry":{"type":"Point","coordinates":[-73.88075,40.67413]}},{"type":"Feature","properties":{"name":"Euclid Av"},"geometry":{"type":"Point","coordinates":[-73.87211,40.67538]}},{"type":"Feature","properties":{"name":"Grant Av"},"geometry":{"type":"Point","coordinates":[-73.86505,40.67704]}},{"type":"Feature","properties":{"name":"80 St"},"geometry":{"type":"Point","coordinates":[-73.85899,40.67937]}},{"type":"Feature","properties":{"name":"88 St"},"geometry":{"type":"Point","coordinates":[-73.85147,40.67984]}},{"type":"Feature","properties":{"name":"Rockaway Blvd"},"geometry":{"type":"Point","coordinates":[-73.84385,40.68043]}},{"type":"Feature","properties":{"name":"104 St"},"geometry":{"type":"Point","coordinates":[-73.83768,40.68171]}},{"type":"Feature","properties":{"name":"111 St"},"geometry":{"type":"Point","coordinates":[-73.83216,40.68433]}},{"type":"Feature","properties":{"name":"Ozone Park-Lefferts Blvd"},"geometry":{"type":"Point","coordinates":[-73.8258,40.68595]}},{"type":"Feature","properties":{"name":"21 St-Queensbridge"},"geometry":{"type":"Point","coordinates":[-73.94284,40.7542]}},{"type":"Feature","properties":{"name":"Roosevelt Island"},"geometry":{"type":"Point","coordinates":[-73.95326,40.75914]}},{"type":"Feature","properties":{"name":"Lexington Av/63 St"},"geometry":{"type":"Point","coordinates":[-73.96611,40.76463]}},{"type":"Feature","properties":{"name":"57 St"},"geometry":{"type":"Point","coordinates":[-73.97745,40.76397]}},{"type":"Feature","properties":{"name":"9 Av"},"geometry":{"type":"Point","coordinates":[-73.99432,40.64629]}},{"type":"Feature","properties":{"name":"Fort Hamilton Pkwy"},"geometry":{"type":"Point","coordinates":[-73.9943,40.64091]}},{"type":"Feature","properties":{"name":"50 St"},"geometry":{"type":"Point","coordinates":[-73.99479,40.63626]}},{"type":"Feature","properties":{"name":"55 St"},"geometry":{"type":"Point","coordinates":[-73.99548,40.63144]}},{"type":"Feature","properties":{"name":"62 St"},"geometry":{"type":"Point","coordinates":[-73.99689,40.62647]}},{"type":"Feature","properties":{"name":"71 St"},"geometry":{"type":"Point","coordinates":[-73.99886,40.61959]}},{"type":"Feature","properties":{"name":"79 St"},"geometry":{"type":"Point","coordinates":[-74.00061,40.6135]}},{"type":"Feature","properties":{"name":"18 Av"},"geometry":{"type":"Point","coordinates":[-74.00174,40.60795]}},{"type":"Feature","properties":{"name":"20 Av"},"geometry":{"type":"Point","coordinates":[-73.99817,40.60456]}},{"type":"Feature","properties":{"name":"Bay Pkwy"},"geometry":{"type":"Point","coordinates":[-73.99373,40.60187]}},{"type":"Feature","properties":{"name":"25 Av"},"geometry":{"type":"Point","coordinates":[-73.98683,40.5977]}},{"type":"Feature","properties":{"name":"Bay 50 St"},"geometry":{"type":"Point","coordinates":[-73.98377,40.58884]}},{"type":"Feature","properties":{"name":"Norwood-205 St"},"geometry":{"type":"Point","coordinates":[-73.87886,40.87481]}},{"type":"Feature","properties":{"name":"Bedford Park Blvd"},"geometry":{"type":"Point","coordinates":[-73.88714,40.87324]}},{"type":"Feature","properties":{"name":"Kingsbridge Rd"},"geometry":{"type":"Point","coordinates":[-73.89351,40.86698]}},{"type":"Feature","properties":{"name":"Fordham Rd"},"geometry":{"type":"Point","coordinates":[-73.89775,40.8613]}},{"type":"Feature","properties":{"name":"182-183 Sts"},"geometry":{"type":"Point","coordinates":[-73.90074,40.85609]}},{"type":"Feature","properties":{"name":"Tremont Av"},"geometry":{"type":"Point","coordinates":[-73.90523,40.85041]}},{"type":"Feature","properties":{"name":"174-175 Sts"},"geometry":{"type":"Point","coordinates":[-73.91014,40.8459]}},{"type":"Feature","properties":{"name":"170 St"},"geometry":{"type":"Point","coordinates":[-73.9134,40.83931]}},{"type":"Feature","properties":{"name":"167 St"},"geometry":{"type":"Point","coordinates":[-73.91844,40.83377]}},{"type":"Feature","properties":{"name":"161 St-Yankee Stadium"},"geometry":{"type":"Point","coordinates":[-73.92565,40.82791]}},{"type":"Feature","properties":{"name":"155 St"},"geometry":{"type":"Point","coordinates":[-73.93821,40.83013]}},{"type":"Feature","properties":{"name":"145 St"},"geometry":{"type":"Point","coordinates":[-73.94422,40.82478]}},{"type":"Feature","properties":{"name":"7 Av"},"geometry":{"type":"Point","coordinates":[-73.98164,40.76286]}},{"type":"Feature","properties":{"name":"47-50 Sts-Rockefeller Ctr"},"geometry":{"type":"Point","coordinates":[-73.98133,40.75866]}},{"type":"Feature","properties":{"name":"42 St-Bryant Pk"},"geometry":{"type":"Point","coordinates":[-73.98457,40.75422]}},{"type":"Feature","properties":{"name":"34 St-Herald Sq"},"geometry":{"type":"Point","coordinates":[-73.98782,40.74972]}},{"type":"Feature","properties":{"name":"23 St"},"geometry":{"type":"Point","coordinates":[-73.99282,40.74288]}},{"type":"Feature","properties":{"name":"14 St"},"geometry":{"type":"Point","coordinates":[-73.99621,40.73823]}},{"type":"Feature","properties":{"name":"W 4 St-Wash Sq"},"geometry":{"type":"Point","coordinates":[-74.0005,40.73234]}},{"type":"Feature","properties":{"name":"Broadway-Lafayette St"},"geometry":{"type":"Point","coordinates":[-73.9962,40.7253]}},{"type":"Feature","properties":{"name":"Grand St"},"geometry":{"type":"Point","coordinates":[-73.99375,40.71827]}},{"type":"Feature","properties":{"name":"Atlantic Av-Barclays Ctr"},"geometry":{"type":"Point","coordinates":[-73.97689,40.68446]}},{"type":"Feature","properties":{"name":"7 Av"},"geometry":{"type":"Point","coordinates":[-73.97237,40.67705]}},{"type":"Feature","properties":{"name":"Prospect Park"},"geometry":{"type":"Point","coordinates":[-73.96225,40.66161]}},{"type":"Feature","properties":{"name":"Parkside Av"},"geometry":{"type":"Point","coordinates":[-73.96149,40.65529]}},{"type":"Feature","properties":{"name":"Church Av"},"geometry":{"type":"Point","coordinates":[-73.96298,40.65053]}},{"type":"Feature","properties":{"name":"Beverley Rd"},"geometry":{"type":"Point","coordinates":[-73.96449,40.64403]}},{"type":"Feature","properties":{"name":"Cortelyou Rd"},"geometry":{"type":"Point","coordinates":[-73.96389,40.64093]}},{"type":"Feature","properties":{"name":"Newkirk Plaza"},"geometry":{"type":"Point","coordinates":[-73.96279,40.63508]}},{"type":"Feature","properties":{"name":"Avenue H"},"geometry":{"type":"Point","coordinates":[-73.96164,40.62927]}},{"type":"Feature","properties":{"name":"Avenue J"},"geometry":{"type":"Point","coordinates":[-73.9608,40.62504]}},{"type":"Feature","properties":{"name":"Avenue M"},"geometry":{"type":"Point","coordinates":[-73.9594,40.61762]}},{"type":"Feature","properties":{"name":"Kings Hwy"},"geometry":{"type":"Point","coordinates":[-73.95773,40.60867]}},{"type":"Feature","properties":{"name":"Avenue U"},"geometry":{"type":"Point","coordinates":[-73.95593,40.5993]}},{"type":"Feature","properties":{"name":"Neck Rd"},"geometry":{"type":"Point","coordinates":[-73.95516,40.59525]}},{"type":"Feature","properties":{"name":"Sheepshead Bay"},"geometry":{"type":"Point","coordinates":[-73.95416,40.5869]}},{"type":"Feature","properties":{"name":"Brighton Beach"},"geometry":{"type":"Point","coordinates":[-73.96138,40.57762]}},{"type":"Feature","properties":{"name":"Ocean Pkwy"},"geometry":{"type":"Point","coordinates":[-73.9685,40.57631]}},{"type":"Feature","properties":{"name":"W 8 St-NY Aquarium"},"geometry":{"type":"Point","coordinates":[-73.97594,40.57613]}},{"type":"Feature","properties":{"name":"Coney Island-Stillwell Av"},"geometry":{"type":"Point","coordinates":[-73.98123,40.57742]}},{"type":"Feature","properties":{"name":"World Trade Center"},"geometry":{"type":"Point","coordinates":[-74.00978,40.71258]}},{"type":"Feature","properties":{"name":"Jamaica-179 St"},"geometry":{"type":"Point","coordinates":[-73.78382,40.71265]}},{"type":"Feature","properties":{"name":"169 St"},"geometry":{"type":"Point","coordinates":[-73.7936,40.71047]}},{"type":"Feature","properties":{"name":"Parsons Blvd"},"geometry":{"type":"Point","coordinates":[-73.80333,40.70756]}},{"type":"Feature","properties":{"name":"Sutphin Blvd"},"geometry":{"type":"Point","coordinates":[-73.81071,40.70546]}},{"type":"Feature","properties":{"name":"Briarwood"},"geometry":{"type":"Point","coordinates":[-73.82057,40.70918]}},{"type":"Feature","properties":{"name":"Kew Gardens-Union Tpke"},"geometry":{"type":"Point","coordinates":[-73.83101,40.71444]}},{"type":"Feature","properties":{"name":"75 Av"},"geometry":{"type":"Point","coordinates":[-73.83732,40.71833]}},{"type":"Feature","properties":{"name":"Court Sq-23 St"},"geometry":{"type":"Point","coordinates":[-73.946,40.74785]}},{"type":"Feature","properties":{"name":"Lexington Av/53 St"},"geometry":{"type":"Point","coordinates":[-73.96905,40.75755]}},{"type":"Feature","properties":{"name":"5 Av/53 St"},"geometry":{"type":"Point","coordinates":[-73.97522,40.76017]}},{"type":"Feature","properties":{"name":"2 Av"},"geometry":{"type":"Point","coordinates":[-73.98994,40.7234]}},{"type":"Feature","properties":{"name":"Delancey St-Essex St"},"geometry":{"type":"Point","coordinates":[-73.98811,40.71861]}},{"type":"Feature","properties":{"name":"East Broadway"},"geometry":{"type":"Point","coordinates":[-73.99017,40.71372]}},{"type":"Feature","properties":{"name":"York St"},"geometry":{"type":"Point","coordinates":[-73.98675,40.7014]}},{"type":"Feature","properties":{"name":"Bergen St"},"geometry":{"type":"Point","coordinates":[-73.99086,40.68615]}},{"type":"Feature","properties":{"name":"Carroll St"},"geometry":{"type":"Point","coordinates":[-73.99505,40.6803]}},{"type":"Feature","properties":{"name":"Smith-9 Sts"},"geometry":{"type":"Point","coordinates":[-73.99596,40.67358]}},{"type":"Feature","properties":{"name":"4 Av-9 St"},"geometry":{"type":"Point","coordinates":[-73.98978,40.67027]}},{"type":"Feature","properties":{"name":"7 Av"},"geometry":{"type":"Point","coordinates":[-73.98031,40.66627]}},{"type":"Feature","properties":{"name":"15 St-Prospect Park"},"geometry":{"type":"Point","coordinates":[-73.97949,40.66036]}},{"type":"Feature","properties":{"name":"Fort Hamilton Pkwy"},"geometry":{"type":"Point","coordinates":[-73.97578,40.65078]}},{"type":"Feature","properties":{"name":"Church Av"},"geometry":{"type":"Point","coordinates":[-73.97968,40.64404]}},{"type":"Feature","properties":{"name":"Ditmas Av"},"geometry":{"type":"Point","coordinates":[-73.97817,40.63612]}},{"type":"Feature","properties":{"name":"18 Av"},"geometry":{"type":"Point","coordinates":[-73.97697,40.62976]}},{"type":"Feature","properties":{"name":"Avenue I"},"geometry":{"type":"Point","coordinates":[-73.97613,40.62532]}},{"type":"Feature","properties":{"name":"Bay Pkwy"},"geometry":{"type":"Point","coordinates":[-73.97526,40.62077]}},{"type":"Feature","properties":{"name":"Avenue N"},"geometry":{"type":"Point","coordinates":[-73.9742,40.61514]}},{"type":"Feature","properties":{"name":"Avenue P"},"geometry":{"type":"Point","coordinates":[-73.97302,40.60894]}},{"type":"Feature","properties":{"name":"Kings Hwy"},"geometry":{"type":"Point","coordinates":[-73.97236,40.60322]}},{"type":"Feature","properties":{"name":"Avenue U"},"geometry":{"type":"Point","coordinates":[-73.97336,40.59606]}},{"type":"Feature","properties":{"name":"Avenue X"},"geometry":{"type":"Point","coordinates":[-73.97425,40.58962]}},{"type":"Feature","properties":{"name":"Neptune Av"},"geometry":{"type":"Point","coordinates":[-73.97457,40.58101]}},{"type":"Feature","properties":{"name":"Jamaica Center-Parsons/Archer"},"geometry":{"type":"Point","coordinates":[-73.80111,40.70215]}},{"type":"Feature","properties":{"name":"Sutphin Blvd-Archer Av-JFK Airport"},"geometry":{"type":"Point","coordinates":[-73.80797,40.70049]}},{"type":"Feature","properties":{"name":"Jamaica-Van Wyck"},"geometry":{"type":"Point","coordinates":[-73.81686,40.70257]}},{"type":"Feature","properties":{"name":"Forest Hills-71 Av"},"geometry":{"type":"Point","coordinates":[-73.84452,40.72169]}},{"type":"Feature","properties":{"name":"67 Av"},"geometry":{"type":"Point","coordinates":[-73.85272,40.72652]}},{"type":"Feature","properties":{"name":"63 Dr-Rego Park"},"geometry":{"type":"Point","coordinates":[-73.8616,40.72985]}},{"type":"Feature","properties":{"name":"Woodhaven Blvd"},"geometry":{"type":"Point","coordinates":[-73.86923,40.73311]}},{"type":"Feature","properties":{"name":"Grand Av-Newtown"},"geometry":{"type":"Point","coordinates":[-73.87722,40.73701]}},{"type":"Feature","properties":{"name":"Elmhurst Av"},"geometry":{"type":"Point","coordinates":[-73.88202,40.74245]}},{"type":"Feature","properties":{"name":"Jackson Hts-Roosevelt Av"},"geometry":{"type":"Point","coordinates":[-73.89134,40.74664]}},{"type":"Feature","properties":{"name":"65 St"},"geometry":{"type":"Point","coordinates":[-73.89845,40.74967]}},{"type":"Feature","properties":{"name":"Northern Blvd"},"geometry":{"type":"Point","coordinates":[-73.90601,40.75288]}},{"type":"Feature","properties":{"name":"46 St"},"geometry":{"type":"Point","coordinates":[-73.91333,40.75631]}},{"type":"Feature","properties":{"name":"Steinway St"},"geometry":{"type":"Point","coordinates":[-73.92074,40.75688]}},{"type":"Feature","properties":{"name":"36 St"},"geometry":{"type":"Point","coordinates":[-73.92878,40.75204]}},{"type":"Feature","properties":{"name":"Queens Plaza"},"geometry":{"type":"Point","coordinates":[-73.93724,40.74897]}},{"type":"Feature","properties":{"name":"Court Sq"},"geometry":{"type":"Point","coordinates":[-73.94383,40.74655]}},{"type":"Feature","properties":{"name":"21 St"},"geometry":{"type":"Point","coordinates":[-73.94972,40.74406]}},{"type":"Feature","properties":{"name":"Greenpoint Av"},"geometry":{"type":"Point","coordinates":[-73.95445,40.73135]}},{"type":"Feature","properties":{"name":"Nassau Av"},"geometry":{"type":"Point","coordinates":[-73.95128,40.72463]}},{"type":"Feature","properties":{"name":"Metropolitan Av"},"geometry":{"type":"Point","coordinates":[-73.95142,40.71279]}},{"type":"Feature","properties":{"name":"Broadway"},"geometry":{"type":"Point","coordinates":[-73.95031,40.70609]}},{"type":"Feature","properties":{"name":"Flushing Av"},"geometry":{"type":"Point","coordinates":[-73.95023,40.70038]}},{"type":"Feature","properties":{"name":"Myrtle-Willoughby Avs"},"geometry":{"type":"Point","coordinates":[-73.94905,40.69457]}},{"type":"Feature","properties":{"name":"Bedford-Nostrand Avs"},"geometry":{"type":"Point","coordinates":[-73.95352,40.68963]}},{"type":"Feature","properties":{"name":"Classon Av"},"geometry":{"type":"Point","coordinates":[-73.96007,40.68887]}},{"type":"Feature","properties":{"name":"Clinton-Washington Avs"},"geometry":{"type":"Point","coordinates":[-73.96684,40.68809]}},{"type":"Feature","properties":{"name":"Fulton St"},"geometry":{"type":"Point","coordinates":[-73.97537,40.68712]}},{"type":"Feature","properties":{"name":"Aqueduct Racetrack"},"geometry":{"type":"Point","coordinates":[-73.83592,40.6721]}},{"type":"Feature","properties":{"name":"Aqueduct-N Conduit Av"},"geometry":{"type":"Point","coordinates":[-73.83406,40.66823]}},{"type":"Feature","properties":{"name":"Howard Beach-JFK Airport"},"geometry":{"type":"Point","coordinates":[-73.8303,40.66048]}},{"type":"Feature","properties":{"name":"Broad Channel"},"geometry":{"type":"Point","coordinates":[-73.81592,40.60838]}},{"type":"Feature","properties":{"name":"Beach 67 St"},"geometry":{"type":"Point","coordinates":[-73.79692,40.59093]}},{"type":"Feature","properties":{"name":"Beach 60 St"},"geometry":{"type":"Point","coordinates":[-73.78852,40.59237]}},{"type":"Feature","properties":{"name":"Beach 44 St"},"geometry":{"type":"Point","coordinates":[-73.77601,40.59294]}},{"type":"Feature","properties":{"name":"Beach 36 St"},"geometry":{"type":"Point","coordinates":[-73.76817,40.5954]}},{"type":"Feature","properties":{"name":"Beach 25 St"},"geometry":{"type":"Point","coordinates":[-73.76135,40.60007]}},{"type":"Feature","properties":{"name":"Far Rockaway-Mott Av"},"geometry":{"type":"Point","coordinates":[-73.7554,40.60399]}},{"type":"Feature","properties":{"name":"Beach 90 St"},"geometry":{"type":"Point","coordinates":[-73.81364,40.58803]}},{"type":"Feature","properties":{"name":"Beach 98 St"},"geometry":{"type":"Point","coordinates":[-73.82056,40.58531]}},{"type":"Feature","properties":{"name":"Beach 105 St"},"geometry":{"type":"Point","coordinates":[-73.82756,40.58321]}},{"type":"Feature","properties":{"name":"Rockaway Park-Beach 116 St"},"geometry":{"type":"Point","coordinates":[-73.83559,40.5809]}},{"type":"Feature","properties":{"name":"121 St"},"geometry":{"type":"Point","coordinates":[-73.82829,40.70049]}},{"type":"Feature","properties":{"name":"111 St"},"geometry":{"type":"Point","coordinates":[-73.83634,40.69742]}},{"type":"Feature","properties":{"name":"104 St"},"geometry":{"type":"Point","coordinates":[-73.84433,40.69518]}},{"type":"Feature","properties":{"name":"Woodhaven Blvd"},"geometry":{"type":"Point","coordinates":[-73.85158,40.69388]}},{"type":"Feature","properties":{"name":"85 St-Forest Pkwy"},"geometry":{"type":"Point","coordinates":[-73.86001,40.69244]}},{"type":"Feature","properties":{"name":"75 St-Elderts Ln"},"geometry":{"type":"Point","coordinates":[-73.86714,40.69132]}},{"type":"Feature","properties":{"name":"Cypress Hills"},"geometry":{"type":"Point","coordinates":[-73.87255,40.68994]}},{"type":"Feature","properties":{"name":"Crescent St"},"geometry":{"type":"Point","coordinates":[-73.87378,40.68319]}},{"type":"Feature","properties":{"name":"Norwood Av"},"geometry":{"type":"Point","coordinates":[-73.88004,40.68141]}},{"type":"Feature","properties":{"name":"Cleveland St"},"geometry":{"type":"Point","coordinates":[-73.88464,40.67995]}},{"type":"Feature","properties":{"name":"Van Siclen Av"},"geometry":{"type":"Point","coordinates":[-73.89169,40.67802]}},{"type":"Feature","properties":{"name":"Alabama Av"},"geometry":{"type":"Point","coordinates":[-73.89865,40.67699]}},{"type":"Feature","properties":{"name":"Broadway Junction"},"geometry":{"type":"Point","coordinates":[-73.90451,40.6795]}},{"type":"Feature","properties":{"name":"Chauncey St"},"geometry":{"type":"Point","coordinates":[-73.91046,40.68289]}},{"type":"Feature","properties":{"name":"Halsey St"},"geometry":{"type":"Point","coordinates":[-73.91656,40.68637]}},{"type":"Feature","properties":{"name":"Gates Av"},"geometry":{"type":"Point","coordinates":[-73.92227,40.68963]}},{"type":"Feature","properties":{"name":"Kosciuszko St"},"geometry":{"type":"Point","coordinates":[-73.92881,40.69334]}},{"type":"Feature","properties":{"name":"8 Av"},"geometry":{"type":"Point","coordinates":[-74.00258,40.73978]}},{"type":"Feature","properties":{"name":"6 Av"},"geometry":{"type":"Point","coordinates":[-73.99679,40.73734]}},{"type":"Feature","properties":{"name":"14 St-Union Sq"},"geometry":{"type":"Point","coordinates":[-73.99073,40.73479]}},{"type":"Feature","properties":{"name":"3 Av"},"geometry":{"type":"Point","coordinates":[-73.98612,40.73285]}},{"type":"Feature","properties":{"name":"1 Av"},"geometry":{"type":"Point","coordinates":[-73.98163,40.73095]}},{"type":"Feature","properties":{"name":"Bedford Av"},"geometry":{"type":"Point","coordinates":[-73.95687,40.7173]}},{"type":"Feature","properties":{"name":"Lorimer St"},"geometry":{"type":"Point","coordinates":[-73.95028,40.71406]}},{"type":"Feature","properties":{"name":"Graham Av"},"geometry":{"type":"Point","coordinates":[-73.94405,40.71457]}},{"type":"Feature","properties":{"name":"Grand St"},"geometry":{"type":"Point","coordinates":[-73.94067,40.71193]}},{"type":"Feature","properties":{"name":"Montrose Av"},"geometry":{"type":"Point","coordinates":[-73.93985,40.70774]}},{"type":"Feature","properties":{"name":"Morgan Av"},"geometry":{"type":"Point","coordinates":[-73.93315,40.70615]}},{"type":"Feature","properties":{"name":"Jefferson St"},"geometry":{"type":"Point","coordinates":[-73.92291,40.70661]}},{"type":"Feature","properties":{"name":"DeKalb Av"},"geometry":{"type":"Point","coordinates":[-73.91842,40.70381]}},{"type":"Feature","properties":{"name":"Myrtle-Wyckoff Avs"},"geometry":{"type":"Point","coordinates":[-73.91159,40.69981]}},{"type":"Feature","properties":{"name":"Halsey St"},"geometry":{"type":"Point","coordinates":[-73.90408,40.6956]}},{"type":"Feature","properties":{"name":"Wilson Av"},"geometry":{"type":"Point","coordinates":[-73.90405,40.68876]}},{"type":"Feature","properties":{"name":"Bushwick Av-Aberdeen St"},"geometry":{"type":"Point","coordinates":[-73.90525,40.68283]}},{"type":"Feature","properties":{"name":"Broadway Junction"},"geometry":{"type":"Point","coordinates":[-73.90324,40.67886]}},{"type":"Feature","properties":{"name":"Atlantic Av"},"geometry":{"type":"Point","coordinates":[-73.9031,40.67535]}},{"type":"Feature","properties":{"name":"Sutter Av"},"geometry":{"type":"Point","coordinates":[-73.90197,40.66937]}},{"type":"Feature","properties":{"name":"Livonia Av"},"geometry":{"type":"Point","coordinates":[-73.90057,40.66404]}},{"type":"Feature","properties":{"name":"New Lots Av"},"geometry":{"type":"Point","coordinates":[-73.89923,40.65873]}},{"type":"Feature","properties":{"name":"East 105 St"},"geometry":{"type":"Point","coordinates":[-73.89948,40.65057]}},{"type":"Feature","properties":{"name":"Canarsie-Rockaway Pkwy"},"geometry":{"type":"Point","coordinates":[-73.90185,40.64665]}},{"type":"Feature","properties":{"name":"Middle Village-Metropolitan Av"},"geometry":{"type":"Point","coordinates":[-73.8896,40.7114]}},{"type":"Feature","properties":{"name":"Fresh Pond Rd"},"geometry":{"type":"Point","coordinates":[-73.89588,40.70619]}},{"type":"Feature","properties":{"name":"Forest Av"},"geometry":{"type":"Point","coordinates":[-73.90308,40.70442]}},{"type":"Feature","properties":{"name":"Seneca Av"},"geometry":{"type":"Point","coordinates":[-73.90774,40.70276]}},{"type":"Feature","properties":{"name":"Myrtle-Wyckoff Avs"},"geometry":{"type":"Point","coordinates":[-73.91239,40.69943]}},{"type":"Feature","properties":{"name":"Knickerbocker Av"},"geometry":{"type":"Point","coordinates":[-73.91971,40.69866]}},{"type":"Feature","properties":{"name":"Central Av"},"geometry":{"type":"Point","coordinates":[-73.9274,40.69786]}},{"type":"Feature","properties":{"name":"Myrtle Av"},"geometry":{"type":"Point","coordinates":[-73.93566,40.69721]}},{"type":"Feature","properties":{"name":"Flushing Av"},"geometry":{"type":"Point","coordinates":[-73.94113,40.70026]}},{"type":"Feature","properties":{"name":"Lorimer St"},"geometry":{"type":"Point","coordinates":[-73.94741,40.70387]}},{"type":"Feature","properties":{"name":"Hewes St"},"geometry":{"type":"Point","coordinates":[-73.95343,40.70687]}},{"type":"Feature","properties":{"name":"Marcy Av"},"geometry":{"type":"Point","coordinates":[-73.95776,40.70836]}},{"type":"Feature","properties":{"name":"Delancey St-Essex St"},"geometry":{"type":"Point","coordinates":[-73.98744,40.71831]}},{"type":"Feature","properties":{"name":"Bowery"},"geometry":{"type":"Point","coordinates":[-73.99392,40.72028]}},{"type":"Feature","properties":{"name":"Canal St"},"geometry":{"type":"Point","coordinates":[-73.99989,40.71809]}},{"type":"Feature","properties":{"name":"Chambers St"},"geometry":{"type":"Point","coordinates":[-74.0034,40.71324]}},{"type":"Feature","properties":{"name":"Fulton St"},"geometry":{"type":"Point","coordinates":[-74.00758,40.71037]}},{"type":"Feature","properties":{"name":"Broad St"},"geometry":{"type":"Point","coordinates":[-74.01106,40.70648]}},{"type":"Feature","properties":{"name":"8 Av"},"geometry":{"type":"Point","coordinates":[-74.01172,40.63506]}},{"type":"Feature","properties":{"name":"Fort Hamilton Pkwy"},"geometry":{"type":"Point","coordinates":[-74.00535,40.63139]}},{"type":"Feature","properties":{"name":"New Utrecht Av"},"geometry":{"type":"Point","coordinates":[-73.99635,40.62484]}},{"type":"Feature","properties":{"name":"18 Av"},"geometry":{"type":"Point","coordinates":[-73.99041,40.62067]}},{"type":"Feature","properties":{"name":"20 Av"},"geometry":{"type":"Point","coordinates":[-73.98503,40.61741]}},{"type":"Feature","properties":{"name":"Bay Pkwy"},"geometry":{"type":"Point","coordinates":[-73.98185,40.61181]}},{"type":"Feature","properties":{"name":"Kings Hwy"},"geometry":{"type":"Point","coordinates":[-73.98035,40.60392]}},{"type":"Feature","properties":{"name":"Avenue U"},"geometry":{"type":"Point","coordinates":[-73.97914,40.59747]}},{"type":"Feature","properties":{"name":"86 St"},"geometry":{"type":"Point","coordinates":[-73.97823,40.59272]}},{"type":"Feature","properties":{"name":"Canal St"},"geometry":{"type":"Point","coordinates":[-74.00046,40.71838]}},{"type":"Feature","properties":{"name":"72 St"},"geometry":{"type":"Point","coordinates":[-73.95842,40.7688]}},{"type":"Feature","properties":{"name":"86 St"},"geometry":{"type":"Point","coordinates":[-73.95179,40.77789]}},{"type":"Feature","properties":{"name":"96 St"},"geometry":{"type":"Point","coordinates":[-73.94715,40.78432]}},{"type":"Feature","properties":{"name":"Astoria-Ditmars Blvd"},"geometry":{"type":"Point","coordinates":[-73.91203,40.77504]}},{"type":"Feature","properties":{"name":"Astoria Blvd"},"geometry":{"type":"Point","coordinates":[-73.91784,40.77026]}},{"type":"Feature","properties":{"name":"30 Av"},"geometry":{"type":"Point","coordinates":[-73.92148,40.76678]}},{"type":"Feature","properties":{"name":"Broadway"},"geometry":{"type":"Point","coordinates":[-73.92551,40.76182]}},{"type":"Feature","properties":{"name":"36 Av"},"geometry":{"type":"Point","coordinates":[-73.92957,40.7568]}},{"type":"Feature","properties":{"name":"39 Av-Dutch Kills"},"geometry":{"type":"Point","coordinates":[-73.93276,40.75288]}},{"type":"Feature","properties":{"name":"Queensboro Plaza"},"geometry":{"type":"Point","coordinates":[-73.9402,40.75058]}},{"type":"Feature","properties":{"name":"Lexington Av/59 St"},"geometry":{"type":"Point","coordinates":[-73.96726,40.76266]}},{"type":"Feature","properties":{"name":"5 Av/59 St"},"geometry":{"type":"Point","coordinates":[-73.97335,40.76481]}},{"type":"Feature","properties":{"name":"57 St-7 Av"},"geometry":{"type":"Point","coordinates":[-73.98066,40.76466]}},{"type":"Feature","properties":{"name":"49 St"},"geometry":{"type":"Point","coordinates":[-73.98414,40.7599]}},{"type":"Feature","properties":{"name":"Times Sq-42 St"},"geometry":{"type":"Point","coordinates":[-73.98675,40.75467]}},{"type":"Feature","properties":{"name":"34 St-Herald Sq"},"geometry":{"type":"Point","coordinates":[-73.98795,40.74957]}},{"type":"Feature","properties":{"name":"28 St"},"geometry":{"type":"Point","coordinates":[-73.98869,40.74549]}},{"type":"Feature","properties":{"name":"23 St"},"geometry":{"type":"Point","coordinates":[-73.98934,40.7413]}},{"type":"Feature","properties":{"name":"14 St-Union Sq"},"geometry":{"type":"Point","coordinates":[-73.99057,40.73574]}},{"type":"Feature","properties":{"name":"8 St-NYU"},"geometry":{"type":"Point","coordinates":[-73.99263,40.73033]}},{"type":"Feature","properties":{"name":"Prince St"},"geometry":{"type":"Point","coordinates":[-73.9977,40.72433]}},{"type":"Feature","properties":{"name":"Canal St"},"geometry":{"type":"Point","coordinates":[-74.00177,40.71953]}},{"type":"Feature","properties":{"name":"City Hall"},"geometry":{"type":"Point","coordinates":[-74.00698,40.71328]}},{"type":"Feature","properties":{"name":"Cortlandt St"},"geometry":{"type":"Point","coordinates":[-74.01103,40.71067]}},{"type":"Feature","properties":{"name":"Rector St"},"geometry":{"type":"Point","coordinates":[-74.01334,40.70722]}},{"type":"Feature","properties":{"name":"Whitehall St-South Ferry"},"geometry":{"type":"Point","coordinates":[-74.01299,40.70309]}},{"type":"Feature","properties":{"name":"Court St"},"geometry":{"type":"Point","coordinates":[-73.99178,40.6941]}},{"type":"Feature","properties":{"name":"Jay St-MetroTech"},"geometry":{"type":"Point","coordinates":[-73.98594,40.69218]}},{"type":"Feature","properties":{"name":"DeKalb Av"},"geometry":{"type":"Point","coordinates":[-73.98182,40.69064]}},{"type":"Feature","properties":{"name":"Atlantic Av-Barclays Ctr"},"geometry":{"type":"Point","coordinates":[-73.97881,40.68367]}},{"type":"Feature","properties":{"name":"Union St"},"geometry":{"type":"Point","coordinates":[-73.98311,40.67732]}},{"type":"Feature","properties":{"name":"4 Av-9 St"},"geometry":{"type":"Point","coordinates":[-73.9883,40.67085]}},{"type":"Feature","properties":{"name":"Prospect Av"},"geometry":{"type":"Point","coordinates":[-73.99287,40.66541]}},{"type":"Feature","properties":{"name":"25 St"},"geometry":{"type":"Point","coordinates":[-73.99809,40.6604]}},{"type":"Feature","properties":{"name":"36 St"},"geometry":{"type":"Point","coordinates":[-74.00355,40.65514]}},{"type":"Feature","properties":{"name":"45 St"},"geometry":{"type":"Point","coordinates":[-74.01001,40.64894]}},{"type":"Feature","properties":{"name":"53 St"},"geometry":{"type":"Point","coordinates":[-74.01403,40.64507]}},{"type":"Feature","properties":{"name":"59 St"},"geometry":{"type":"Point","coordinates":[-74.01788,40.64136]}},{"type":"Feature","properties":{"name":"Bay Ridge Av"},"geometry":{"type":"Point","coordinates":[-74.02338,40.63497]}},{"type":"Feature","properties":{"name":"77 St"},"geometry":{"type":"Point","coordinates":[-74.02551,40.62974]}},{"type":"Feature","properties":{"name":"86 St"},"geometry":{"type":"Point","coordinates":[-74.0284,40.62269]}},{"type":"Feature","properties":{"name":"Bay Ridge-95 St"},"geometry":{"type":"Point","coordinates":[-74.03088,40.61662]}},{"type":"Feature","properties":{"name":"Franklin Av"},"geometry":{"type":"Point","coordinates":[-73.95583,40.6806]}},{"type":"Feature","properties":{"name":"Park Pl"},"geometry":{"type":"Point","coordinates":[-73.95762,40.67477]}},{"type":"Feature","properties":{"name":"Botanic Garden"},"geometry":{"type":"Point","coordinates":[-73.95924,40.67034]}},{"type":"Feature","properties":{"name":"Tottenville"},"geometry":{"type":"Point","coordinates":[-74.25196,40.51276]}},{"type":"Feature","properties":{"name":"Arthur Kill"},"geometry":{"type":"Point","coordinates":[-74.2421,40.51658]}},{"type":"Feature","properties":{"name":"Richmond Valley"},"geometry":{"type":"Point","coordinates":[-74.22914,40.51963]}},{"type":"Feature","properties":{"name":"Pleasant Plains"},"geometry":{"type":"Point","coordinates":[-74.21785,40.52241]}},{"type":"Feature","properties":{"name":"Prince's Bay"},"geometry":{"type":"Point","coordinates":[-74.20006,40.52551]}},{"type":"Feature","properties":{"name":"Huguenot"},"geometry":{"type":"Point","coordinates":[-74.19179,40.53367]}},{"type":"Feature","properties":{"name":"Annadale"},"geometry":{"type":"Point","coordinates":[-74.17822,40.54046]}},{"type":"Feature","properties":{"name":"Eltingville"},"geometry":{"type":"Point","coordinates":[-74.16457,40.5446]}},{"type":"Feature","properties":{"name":"Great Kills"},"geometry":{"type":"Point","coordinates":[-74.1514,40.55123]}},{"type":"Feature","properties":{"name":"Bay Terrace"},"geometry":{"type":"Point","coordinates":[-74.13691,40.5564]}},{"type":"Feature","properties":{"name":"Oakwood Heights"},"geometry":{"type":"Point","coordinates":[-74.12632,40.56511]}},{"type":"Feature","properties":{"name":"New Dorp"},"geometry":{"type":"Point","coordinates":[-74.11721,40.57348]}},{"type":"Feature","properties":{"name":"Grant City"},"geometry":{"type":"Point","coordinates":[-74.1097,40.57896]}},{"type":"Feature","properties":{"name":"Jefferson Av"},"geometry":{"type":"Point","coordinates":[-74.10334,40.58359]}},{"type":"Feature","properties":{"name":"Dongan Hills"},"geometry":{"type":"Point","coordinates":[-74.09609,40.58885]}},{"type":"Feature","properties":{"name":"Old Town"},"geometry":{"type":"Point","coordinates":[-74.08737,40.59661]}},{"type":"Feature","properties":{"name":"Grasmere"},"geometry":{"type":"Point","coordinates":[-74.08409,40.60312]}},{"type":"Feature","properties":{"name":"Clifton"},"geometry":{"type":"Point","coordinates":[-74.0714,40.62132]}},{"type":"Feature","properties":{"name":"Stapleton"},"geometry":{"type":"Point","coordinates":[-74.07516,40.62792]}},{"type":"Feature","properties":{"name":"Tompkinsville"},"geometry":{"type":"Point","coordinates":[-74.07483,40.63695]}},{"type":"Feature","properties":{"name":"St George"},"geometry":{"type":"Point","coordinates":[-74.07364,40.64375]}}]}